ONEWEB-0228             
1 48780U 21045P   24001.75243987 -.00000079  00000+0 -24469-3 0  9996
2 48780  87.8992  77.8335 0001703 105.3616 254.7702 13.15542546126336
